P/2012 K3 (Gibbs),e,13.1879,125.8203,172.2395,3.628793,0.1425807,0.42240113,185.6777,03/11.0/2023,2000,g 15.0,4.0
# From MPC 88326
P/2012 NJ (La Sagra),e,84.5480,315.6032,338.3869,8.466306,0.0400095,0.84670828,156.8609,03/11.0/2023,2000,g 14.5,4.0
# From MPC 81470
P/2012 O1 (McNaught),e,7.4267,91.9230,238.3378,3.541825,0.1478644,0.59419998,217.2181,03/11.0/2023,2000,g 17.5,4.0
# From MPC 80899
P/2012 O2 (McNaught),e,24.4657,120.6823,183.4772,3.626491,0.1427165,0.53189340,200.5667,03/11.0/2023,2000,g 17.0,4.0
# From MPC 82320
P/2012 T2 (PANSTARRS),e,12.5685,73.7168,310.8251,5.727014,0.0719137,0.16240909,258.8075,03/11.0/2023,2000,g 10.0,4.0
# From MPC 80900
P/2012 T3 (PANSTARRS),e,9.5569,114.3622,195.5447,6.151503,0.0645999,0.61657102,255.8782,03/11.0/2023,2000,g 15.0,4.0
# From MPC 82720
P/2012 U2 (PANSTARRS),e,10.7597,185.3256,228.2684,7.131101,0.0517570,0.50011968,194.9310,03/11.0/2023,2000,g 12.5,4.0
# From MPC 84024
P/2012 US27 (Siding Spring),e,39.3699,49.2085,0.8351,5.164191,0.0839848,0.64830718,310.4299,03/11.0/2023,2000,g 13.5,4.0
# From MPC 82721
P/2012 WA34 (Lemmon-PANSTARRS),e,6.0822,93.5545,356.6227,4.679589,0.0973627,0.34368058,348.3394,03/11.0/2023,2000,g 13.5,4.0
# From MPC 82721
P/2013 AL76 (Catalina),e,144.8764,146.0209,27.0402,6.500260,0.0594714,0.68586573,223.1663,03/11.0/2023,2000,g 16.0,4.0
# From MPC 91612
P/2013 G1 (Kowalski),e,5.4575,221.3040,51.5473,6.898453,0.0543972,0.51099158,183.8642,03/11.0/2023,2000,g 11.0,4.0
# From MPC 84025
P/2013 G4 (PANSTARRS),e,5.9160,339.6312,214.6157,4.437770,0.1054282,0.40914796,27.9142,03/11.0/2023,2000,g 15.0,4.0
# From MPC 91613
P/2013 J2 (McNaught),e,15.5078,289.3324,37.8861,6.223400,0.0634837,0.65722164,220.8279,03/11.0/2023,2000,g 13.0,4.0
# From MPC 86229
P/2013 N3 (PANSTARRS),e,2.1734,17.4794,323.9773,7.396112,0.0490003,0.59288217,162.0729,03/11.0/2023,2000,g 13.0,4.0
# From MPC 85834
P/2013 N5 (PANSTARRS),e,23.4614,187.1552,176.9506,6.797030,0.0556193,0.73248758,196.4767,03/11.0/2023,2000,g 17.0,4.0
# From MPC 85834
P/2013 P1 (PANSTARRS),e,18.7216,160.6060,138.2541,8.583563,0.0391925,0.60434827,143.5926,03/11.0/2023,2000,g 12.0,4.0
# From MPEC 2022-V95
P/2013 R3 (Catalina-PANSTARRS),e,0.8650,341.9712,11.3097,3.031747,0.1867087,0.27561998,289.9082,03/11.0/2023,2000,g 14.0,4.0
# From unp
P/2013 R3-A (Catalina-PANSTARRS),e,0.8641,341.9260,11.3886,3.031501,0.1867314,0.27555065,289.9693,03/11.0/2023,2000,g  9.0,4.0
# From MPEC 2015-M77
P/2013 R3-B (Catalina-PANSTARRS),e,0.8654,341.9820,11.3234,3.031722,0.1867111,0.27559595,289.9028,03/11.0/2023,2000,g  9.0,4.0
# From MPC 85835
P/2013 T1 (PANSTARRS),e,24.3025,10.0802,346.1762,5.856459,0.0695427,0.62426621,243.4793,03/11.0/2023,2000,g 16.5,4.0
# From MPC 86643
P/2013 T2 (Schwartz),e,9.4567,0.8021,345.5880,3.492033,0.1510381,0.50099246,180.6446,03/11.0/2023,2000,g 16.0,4.0
# From MPC 91613
P/2013 W1 (PANSTARRS),e,4.6970,117.8388,1.2236,3.487232,0.1513502,0.59297967,137.9917,03/11.0/2023,2000,g 17.5,4.0
# From MPC101095
P/2013 YG46 (Spacewatch),e,7.8576,48.8360,242.6064,3.273771,0.1663917,0.45462751,10.5989,03/11.0/2023,2000,g 10.0,4.0
# From MPC 89728
P/2014 A2 (Hill),e,24.5489,106.6344,356.1455,5.926945,0.0683058,0.64579831,234.9103,03/11.0/2023,2000,g 15.0,4.0
# From MPC 92981
P/2014 A3 (PANSTARRS),e,13.7173,229.9779,214.1531,4.607560,0.0996547,0.24650532,355.7672,03/11.0/2023,2000,g 12.0,4.0
# From MPC102095
P/2014 C1 (TOTAS),e,2.6933,167.8198,23.9666,3.031323,0.1867479,0.45147453,265.8956,03/11.0/2023,2000,g 15.5,4.0
# From MPEC 2022-WD2
C/2014 F3 (Sheppard-Trujillo),e,6.5345,326.2969,4.6131,14.54298,0.0177715,0.60733755,11.5663,03/11.0/2023,2000,g  6.0,4.0
# From MPC 98560
P/2014 L2 (NEOWISE),e,5.1981,149.3455,182.7240,6.305741,0.0622443,0.64778040,196.3186,03/11.0/2023,2000,g 12.0,4.0
# From MPC 90769
P/2014 L3 (Hill),e,6.2656,115.4972,178.7088,8.179005,0.0421360,0.77251497,133.8311,03/11.0/2023,2000,g 16.0,4.0
# From MPC 91614
P/2014 M4 (PANSTARRS),e,3.3442,263.1779,148.0564,5.867799,0.0693412,0.59573224,207.5305,03/11.0/2023,2000,g 15.0,4.0
# From MPEC 2022-K19
P/2014 MG4 (Spacewatch-PANSTARRS),e,9.3661,311.7230,299.0218,5.013613,0.0877966,0.25886516,312.0249,03/11.0/2023,2000,g  9.5,4.0
# From MPC 98560
P/2014 O3 (PANSTARRS),e,7.7949,87.6384,204.7931,7.577952,0.0472472,0.38418882,153.5439,03/11.0/2023,2000,g 10.5,4.0
# From MPEC 2023-A50
C/2014 OG392 (PANSTARRS),e,9.0330,145.8060,254.4465,12.25574,0.0229718,0.18642512,10.4686,03/11.0/2023,2000,g  6.0,4.0
# From MPC 91616
P/2014 U4 (PANSTARRS),e,6.4290,11.8863,347.8486,3.509215,0.1499302,0.46479096,113.2496,03/11.0/2023,2000,g 18.0,4.0
# From MPEC 2023-D72
C/2014 UN271 (Bernardinelli-Bernstein),h,01/21.4718/2031,95.4301,189.8978,326.2206,1.001343,10.947964,2000,2.5,3.2
# From MPC 95211
P/2014 V1 (PANSTARRS),e,22.5235,166.1980,177.6632,5.479452,0.0768419,0.53436850,227.7653,03/11.0/2023,2000,g 14.0,4.0
# From MPC 93586
P/2014 W1 (PANSTARRS),e,8.8358,246.2226,152.1175,4.468318,0.1043489,0.38953287,330.4576,03/11.0/2023,2000,g 15.5,4.0
# From MPC105542
P/2014 W4 (PANSTARRS),e,15.2835,33.3898,67.5862,6.587408,0.0582951,0.35355600,153.1266,03/11.0/2023,2000,g 11.0,4.0
# From MPC 94281
P/2014 X1 (Elenin),e,26.0514,61.5704,33.8639,6.204234,0.0637781,0.70974292,190.7295,03/11.0/2023,2000,g 15.0,4.0
# From MPC 92275
P/2015 A3 (PANSTARRS),e,172.5425,277.3432,249.4855,7.815970,0.0451055,0.85031896,132.7649,03/11.0/2023,2000,g 20.0,4.0
# From MPC 99270
P/2015 B1 (PANSTARRS),e,18.0565,352.9125,188.8558,9.489011,0.0337188,0.36641140,92.3997,03/11.0/2023,2000,g  8.5,4.0
# From MPC109141
P/2015 B4 (Lemmon-PANSTARRS),e,1.7640,266.0719,227.2267,8.515201,0.0396654,0.56074883,117.3429,03/11.0/2023,2000,g 11.0,4.0
# From MPC101096
P/2015 C1 (TOTAS-Gibbs),e,13.9226,348.7904,178.0863,6.573291,0.0584830,0.56123990,168.4080,03/11.0/2023,2000,g 12.5,4.0
# From MPC109141
P/2015 D5 (Kowalski),e,20.5375,74.0750,39.6431,8.952284,0.0367962,0.49015057,120.1506,03/11.0/2023,2000,g  9.0,4.0
# From MPC 96866
P/2015 D6 (Lemmon-PANSTARRS),e,20.2082,45.8407,124.9930,7.134678,0.0517181,0.36145384,145.5991,03/11.0/2023,2000,g 10.5,4.0
# From MPEC 2021-P47
P/2015 HG16 (PANSTARRS),e,18.8912,57.2999,47.3730,4.788831,0.0940502,0.35194267,304.7540,03/11.0/2023,2000,g 12.5,4.0
# From MPC 95213
P/2015 K5 (PANSTARRS),e,39.9421,134.2252,106.3022,6.726735,0.0564934,0.55176356,160.5100,03/11.0/2023,2000,g 13.5,4.0
# From MPC107684
P/2015 M2 (PANSTARRS),e,3.9692,86.5821,226.0256,7.244875,0.0505426,0.17955708,138.2827,03/11.0/2023,2000,g  8.5,4.0
# From MPEC 2021-P47
C/2015 O1 (PANSTARRS),h,02/20.1984/2018,127.1649,299.8208,89.5148,1.001340,3.719541,2000,6.5,4.0
# From MPC 99819
P/2015 P4 (PANSTARRS),e,8.7179,104.6676,280.6924,6.046680,0.0662870,0.58576021,172.5343,03/11.0/2023,2000,g 14.0,4.0
# From MPEC 2022-K19
P/2015 PD229 (Cameron-ISON),e,2.0246,342.6656,352.7117,7.194404,0.0510754,0.32735523,141.0876,03/11.0/2023,2000,g 11.5,2.0
# From MPC 96867
P/2015 Q2 (Pimentel),e,146.5527,228.5422,244.6571,7.353437,0.0494275,0.75074040,135.4857,03/11.0/2023,2000,g 15.5,4.0
# From MPC 98562
P/2015 R1 (PANSTARRS),e,22.6999,48.3202,300.5937,5.880790,0.0691115,0.63419658,194.1853,03/11.0/2023,2000,g 14.0,4.0
# From MPC 95734
P/2015 R2 (PANSTARRS),e,15.4843,168.5952,149.8618,4.485074,0.1037647,0.45269778,293.0175,03/11.0/2023,2000,g 14.5,4.0
# From MPC 96280
P/2015 T3 (PANSTARRS),e,13.0937,120.5019,178.6330,4.326181,0.1095335,0.50818108,359.9227,12/21.0/2014,2000,g 14.0,4.0
# From MPC102953
P/2015 TO19 (Lemmon-PANSTARRS),e,6.5013,321.6227,89.2077,4.551360,0.1015061,0.35945190,259.7018,03/11.0/2023,2000,g 14.0,4.0
# From MPC110080
P/2015 TP200 (LINEAR),e,8.7801,7.0149,82.4387,7.264071,0.0503424,0.53639587,116.9828,03/11.0/2023,2000,g 11.0,4.0
# From MPC101098
P/2015 W2 (Catalina),e,11.6110,294.1293,117.5785,7.290713,0.0500667,0.63536956,135.8875,03/11.0/2023,2000,g 13.0,4.0
# From MPEC 2022-OB6
C/2015 XY1 (Lemmon),e,148.8518,281.5642,196.1380,15340,0.0000005,0.99948329,0.0000,04/25.3478/2018,2000,g  5.5,4.0
# From MPEC 2022-OB6
P/2015 X3 (PANSTARRS),e,24.4064,77.2672,306.7791,5.002753,0.0880827,0.44009835,243.6652,03/11.0/2023,2000,g 15.0,4.0
# From MPC115881
P/2015 X6 (PANSTARRS),e,4.5651,106.9312,329.7871,2.752115,0.2158759,0.17325636,188.8252,03/11.0/2023,2000,g 16.0,4.0
# From MPC100282
P/2016 A2 (Christensen),e,26.4041,291.6182,141.2865,4.753560,0.0950989,0.27097087,268.9794,03/11.0/2023,2000,g 11.5,4.0
# From MPEC 2022-OB6
P/2016 A3 (PANSTARRS),e,8.5113,187.2167,340.8973,7.878471,0.0445698,0.38605211,95.6170,03/11.0/2023,2000,g 10.0,4.0
# From MPC102098
P/2016 A7 (PANSTARRS),e,16.6037,221.4975,352.5105,5.035382,0.0872279,0.56452874,224.8348,03/11.0/2023,2000,g 16.0,4.0
# From MPC109143
P/2016 BA14 (PANSTARRS),e,18.8967,180.5135,351.9715,3.026847,0.1871623,0.66435141,118.2983,03/11.0/2023,2000,g 21.0,4.0
# From MPEC 2021-P47
P/2016 G1 (PANSTARRS),e,10.9711,204.0171,111.1510,2.582988,0.2374218,0.21062972,170.7774,03/11.0/2023,2000,g 14.0,4.0
# From MPEC 2017-D91
P/2016 J1-A (PANSTARRS),e,14.3295,199.8075,47.1237,3.173275,0.1743583,0.22771357,66.7560,03/11.0/2023,2000,g 16.5,4.0
# From MPEC 2017-A77
P/2016 J1-B (PANSTARRS),e,14.3323,199.8123,47.0153,3.172912,0.1743882,0.22756404,66.9051,03/11.0/2023,2000,g 17.0,4.0
# From MPEC 2022-ED3
C/2016 M1 (PANSTARRS),e,90.8567,92.2656,209.9338,36716,0.0000001,0.99993969,0.0000,08/10.4650/2018,2000,g  5.0,4.0
# From MPEC 2021-P47
C/2016 N6 (PANSTARRS),e,105.8644,298.9027,162.5787,959.0724,0.0000332,0.99722663,0.0000,07/17.4013/2018,2000,g  7.0,4.0
# From MPC102099
P/2016 P1 (PANSTARRS),e,24.3989,319.4898,270.5867,3.200528,0.1721360,0.28927979,109.7396,03/11.0/2023,2000,g 15.0,4.0
# From MPEC 2023-D72
C/2016 Q2 (PANSTARRS),h,05/12.3896/2021,109.3798,322.3130,84.5574,1.003027,7.081839,2000,6.0,4.0
# From MPEC 2021-N06
C/2016 R2 (PANSTARRS),e,58.3394,80.5097,33.0924,479.3760,0.0000939,0.99458472,0.0000,05/09.3184/2018,2000,g  7.0,4.0
# From MPEC 2022-K19
P/2016 R4 (Gibbs),e,10.8768,168.2617,174.1372,5.332970,0.0800295,0.47610859,193.7311,03/11.0/2023,2000,g 12.5,4.0
